*******************************************************************************
JPL/HORIZONS            4212 Sansyu-Asuke (1987 SB2)       2023-Sep-04 11:27:56
Rec #:    4212 (+COV) Soln.date: 2023-Aug-23_16:55:25   # obs: 4441 (1948-2023)
 
IAU76/J2000 helio. ecliptic osc. elements (au, days, deg., period=Julian yrs):
 
  EPOCH=  2457604.5 ! 2016-Aug-04.00 (TDB)         Residual RMS= .26705
   EC= .2492016296756326   QR= 2.363948640420836   TP= 2457218.4067710857
   OM= 22.28042565177089   W=  343.4070005185968   IN= 14.86992543740139
   A= 3.148579876910947    MA= 68.11208674939357   ADIST= 3.933211113401057
   PER= 5.58702            N= .176413575           ANGMOM= .029560837
   DAN= 2.38375            DDN= 3.87959            L= 6.2139808
   B= -4.2026816           MOID= 1.36632001        TP= 2015-Jul-14.9067710857
 
Asteroid physical parameters (km, seconds, rotational period in hours):
   GM= n.a.                RAD= 8.4475             ROTPER= 15.94
   H= 11.32                G= .150                 B-V= n.a.
                           ALBEDO= .225            STYP= n.a.

ASTEROID comments: 
1: soln ref.= JPL#54, OCC=0
2: source=ORB
*******************************************************************************


*******************************************************************************
Ephemeris / API_USER Mon Sep  4 11:27:56 2023 Pasadena, USA      / Horizons
*******************************************************************************
Target body name: 4212 Sansyu-Asuke (1987 SB2)    {source: JPL#54}
Center body name: Solar System Barycenter (0)     {source: DE441}
Center-site name: BODY CENTER
*******************************************************************************
Start time      : A.D. 2023-Aug-12 00:00:00.0000 TDB
Stop  time      : A.D. 2023-Aug-13 00:00:00.0000 TDB
Step-size       : 2880 minutes
*******************************************************************************
Center geodetic : 0.0, 0.0, 0.0                   {E-lon(deg),Lat(deg),Alt(km)}
Center cylindric: 0.0, 0.0, 0.0                   {E-lon(deg),Dxy(km),Dz(km)}
Center radii    : (undefined)
Small perturbers: Yes                             {source: SB441-N16}
Output units    : KM-S
Calendar mode   : Mixed Julian/Gregorian
Output type     : GEOMETRIC cartesian states
Output format   : 2 (position and velocity)
Reference frame : Ecliptic of J2000.0
*******************************************************************************
Initial IAU76/J2000 heliocentric ecliptic osculating elements (au, days, deg.):
  EPOCH=  2457604.5 ! 2016-Aug-04.00 (TDB)         Residual RMS= .26705        
   EC= .2492016296756326   QR= 2.363948640420836   TP= 2457218.4067710857      
   OM= 22.28042565177089   W=  343.4070005185968   IN= 14.86992543740139       
  Equivalent ICRF heliocentric cartesian coordinates (au, au/d):
   X=-6.201813140536963E-01  Y= 2.334355254947452E+00  Z= 1.850800694164346E+00
  VX=-9.968506338398415E-03 VY=-2.434084892747486E-04 VZ= 1.039122221609254E-03
Asteroid physical parameters (km, seconds, rotational period in hours):        
   GM= n.a.                RAD= 8.4475             ROTPER= 15.94               
   H= 11.32                G= .150                 B-V= n.a.                   
                           ALBEDO= .225            STYP= n.a.                  
*******************************************************************************
JDTDB
   X     Y     Z
   VX    VY    VZ
*******************************************************************************
$$SOE
2460168.500000000 = A.D. 2023-Aug-12 00:00:00.0000 TDB 
 X =-5.758967696026319E+08 Y = 6.590526637416777E+07 Z = 7.345788966642302E+07
 VX=-2.764271078459169E+00 VY=-1.260892246224349E+01 VZ=-2.814150486053249E+00
$$EOE
*******************************************************************************
 
TIME

  Barycentric Dynamical Time ("TDB" or T_eph) output was requested. This
continuous coordinate time is equivalent to the relativistic proper time
of a clock at rest in a reference frame co-moving with the solar system
barycenter but outside the system's gravity well. It is the independent
variable in the solar system relativistic equations of motion.

  TDB runs at a uniform rate of one SI second per second and is independent
of irregularities in Earth's rotation.
 
CALENDAR SYSTEM

  Mixed calendar mode was active such that calendar dates after AD 1582-Oct-15
(if any) are in the modern Gregorian system. Dates prior to 1582-Oct-5 (if any)
are in the Julian calendar system, which is automatically extended for dates
prior to its adoption on 45-Jan-1 BC.  The Julian calendar is useful for
matching historical dates. The Gregorian calendar more accurately corresponds
to the Earth's orbital motion and seasons. A "Gregorian-only" calendar mode is
available if such physical events are the primary interest.

REFERENCE FRAME AND COORDINATES

  Ecliptic at the standard reference epoch

    Reference epoch: J2000.0
    X-Y plane: adopted Earth orbital plane at the reference epoch
               Note: IAU76 obliquity of 84381.448 arcseconds wrt ICRF X-Y plane
    X-axis   : ICRF
    Z-axis   : perpendicular to the X-Y plane in the directional (+ or -) sense
               of Earth's north pole at the reference epoch.

  Symbol meaning:

    JDTDB    Julian Day Number, Barycentric Dynamical Time
      X      X-component of position vector (km)
      Y      Y-component of position vector (km)
      Z      Z-component of position vector (km)
      VX     X-component of velocity vector (km/sec)                           
      VY     Y-component of velocity vector (km/sec)                           
      VZ     Z-component of velocity vector (km/sec)                           

ABERRATIONS AND CORRECTIONS

 Geometric state vectors have NO corrections or aberrations applied.

Computations by ...

    Solar System Dynamics Group, Horizons On-Line Ephemeris System
    4800 Oak Grove Drive, Jet Propulsion Laboratory
    Pasadena, CA  91109   USA

    General site: https://ssd.jpl.nasa.gov/
    Mailing list: https://ssd.jpl.nasa.gov/email_list.html
    System news : https://ssd.jpl.nasa.gov/horizons/news.html
    User Guide  : https://ssd.jpl.nasa.gov/horizons/manual.html
    Connect     : browser        https://ssd.jpl.nasa.gov/horizons/app.html#/x
                  API            https://ssd-api.jpl.nasa.gov/doc/horizons.html
                  command-line   telnet ssd.jpl.nasa.gov 6775
                  e-mail/batch   https://ssd.jpl.nasa.gov/ftp/ssd/hrzn_batch.txt
                  scripts        https://ssd.jpl.nasa.gov/ftp/ssd/SCRIPTS
    Author      : Jon.D.Giorgini@jpl.nasa.gov
*******************************************************************************
